[{"OBJECT_NAME":"STARLINK-5859","OBJECT_ID":"2023-037B","EPOCH":"2026-03-09T22:35:44.252160","MEAN_MOTION":14.98330181,"ECCENTRICITY":0.00029692,"INCLINATION":69.9982,"RA_OF_ASC_NODE":303.8736,"ARG_OF_PERICENTER":266.2403,"MEAN_ANOMALY":93.8417,"EPHEMERIS_TYPE":0,"CLASSIFICATION_TYPE":"U","NORAD_CAT_ID":55915,"ELEMENT_SET_NO":999,"REV_AT_EPOCH":16421,"BSTAR":-6.877978e-6,"MEAN_MOTION_DOT":-1.75e-6,"MEAN_MOTION_DDOT":0},{"OBJECT_NAME":"ION SCV-016","OBJECT_ID":"2025-009V","EPOCH":"2026-03-09T15:48:19.049184","MEAN_MOTION":14.46743407,"ECCENTRICITY":0.06066159,"INCLINATION":97.4455,"RA_OF_ASC_NODE":117.8911,"ARG_OF_PERICENTER":59.3392,"MEAN_ANOMALY":306.6163,"EPHEMERIS_TYPE":0,"CLASSIFICATION_TYPE":"U","NORAD_CAT_ID":62628,"ELEMENT_SET_NO":999,"REV_AT_EPOCH":6113,"BSTAR":0.0005439681,"MEAN_MOTION_DOT":0.00025234,"MEAN_MOTION_DDOT":0}]
